NORAD_CAT_ID,OBJECT_NAME,OBJECT_TYPE,EPOCH,MEAN_MOTION,ECCENTRICITY,INCLINATION,RA_OF_ASC_NODE,ARG_OF_PERICENTER,MEAN_ANOMALY,BSTAR,MEAN_MOTION_DOT,MEAN_MOTION_DDOT,TLE_LINE0,TLE_LINE1,TLE_LINE2,SEMIMAJOR_AXIS,PERIOD,APOGEE,PERIGEE,DECAYED
52300.0,STARLINK-3769,PAYLOAD,2023-08-20 15:50:10,15.08840111,0.0001256,53.2171,323.1676,85.1958,274.9177,0.00023123,3.394e-05,0.0,0 STARLINK-3769,1 52300U 22041AR  23232.65983862  .00003394  00000-0  23123-3 0  9991,2 52300  53.2171 323.1676 0001256  85.1958 274.9177 15.08840111 75029,6917.88,95.438,540.614,538.876,0.0
52300.0,STARLINK-3769,PAYLOAD,2023-08-22 10:45:34,15.08839983,0.000126,53.2183,315.1372,98.5342,261.5793,8.1627e-05,1.011e-05,0.0,0 STARLINK-3769,1 52300U 22041AR  23234.44831950  .00001011  00000-0  81627-4 0  9998,2 52300  53.2183 315.1372 0001260  98.5342 261.5793 15.08839983 75296,6917.88,95.438,540.617,538.874,0.0
52300.0,STARLINK-3769,PAYLOAD,2023-08-23 05:50:12,15.08833816,0.0001,53.2193,311.5713,87.1909,272.9198,4.1129e-05,3.67e-06,0.0,0 STARLINK-3769,1 52300U 22041AR  23235.24320536  .00000367  00000-0  41129-4 0  9996,2 52300  53.2193 311.5713 0001000  87.1909 272.9198 15.08833816 75419,6917.899,95.438,540.456,539.073,0.0
52300.0,STARLINK-3769,PAYLOAD,2023-08-24 13:37:55,15.08838171,0.0001184,53.218,305.6227,92.6556,267.4571,5.4468e-05,5.79e-06,0.0,0 STARLINK-3769,1 52300U 22041AR  23236.56800471  .00000579  00000-0  54468-4 0  9998,2 52300  53.2180 305.6227 0001184  92.6556 267.4571 15.08838171 75616,6917.886,95.438,540.57,538.932,0.0
52300.0,STARLINK-3769,PAYLOAD,2023-08-25 11:53:19,15.08848509,0.0001387,53.2176,301.4598,83.8145,276.3005,-2.1181e-06,-3.22e-06,0.0,0 STARLINK-3769,1 52300U 22041AR  23237.49536115 -.00000322  00000-0 -21181-5 0  9997,2 52300  53.2176 301.4598 0001387  83.8145 276.3005 15.08848509 75759,6917.854,95.437,540.679,538.76,0.0
52300.0,STARLINK-3769,PAYLOAD,2023-08-25 16:39:28,15.08846525,0.0001161,53.2175,300.5665,88.3244,271.7881,0.00013948,1.933e-05,0.0,0 STARLINK-3769,1 52300U 22041AR  23237.69407864  .00001933  00000-0  13948-3 0  9994,2 52300  53.2175 300.5665 0001161  88.3244 271.7881 15.08846525 75783,6917.86,95.437,540.529,538.922,0.0
52300.0,STARLINK-3769,PAYLOAD,2023-08-26 10:08:43,15.08836787,0.0001388,53.2174,297.2971,71.3176,288.7967,8.9886e-05,1.143e-05,0.0,0 STARLINK-3769,1 52300U 22041AR  23238.42272921  .00001143  00000-0  89886-4 0  9998,2 52300  53.2174 297.2971 0001388  71.3176 288.7967 15.08836787 75895,6917.89,95.438,540.715,538.795,0.0
52300.0,STARLINK-3769,PAYLOAD,2023-08-26 13:19:29,15.08842619,0.0001296,53.2176,296.7015,81.0414,279.0724,0.00014068,1.952e-05,0.0,0 STARLINK-3769,1 52300U 22041AR  23238.55520459  .00001952  00000-0  14068-3 0  9991,2 52300  53.2176 296.7015 0001296  81.0414 279.0724 15.08842619 75919,6917.872,95.437,540.634,538.841,0.0
52300.0,STARLINK-3769,PAYLOAD,2023-08-27 09:59:30,15.0884677,0.0001324,53.2165,292.8358,79.3551,280.759,0.00012582,1.715e-05,0.0,0 STARLINK-3769,1 52300U 22041AR  23239.41632319  .00001715  00000-0  12582-3 0  9992,2 52300  53.2165 292.8358 0001324  79.3551 280.7590 15.08846770 76045,6917.86,95.437,540.641,538.809,0.0
52300.0,STARLINK-3769,PAYLOAD,2023-08-27 11:34:53,15.08847849,0.0001303,53.2164,292.5382,82.3113,277.8028,0.00014471,2.016e-05,0.0,0 STARLINK-3769,1 52300U 22041AR  23239.48256241  .00002016  00000-0  14471-3 0  9999,2 52300  53.2164 292.5382 0001303  82.3113 277.8028 15.08847849 76055,6917.856,95.437,540.623,538.82,0.0
52300.0,STARLINK-3769,PAYLOAD,2023-08-28 03:28:45,15.08837209,0.0001249,53.2157,289.5655,82.9792,277.1342,0.00010036,1.31e-05,0.0,0 STARLINK-3769,1 52300U 22041AR  23240.14496799  .00001310  00000-0  10036-3 0  9997,2 52300  53.2157 289.5655 0001249  82.9792 277.1342 15.08837209 76156,6917.889,95.438,540.618,538.89,0.0
52300.0,STARLINK-3769,PAYLOAD,2023-08-28 14:36:26,15.0884274,0.0001316,53.217,287.4828,88.7931,271.3212,8.5666e-05,1.076e-05,0.0,0 STARLINK-3769,1 52300U 22041AR  23240.60864481  .00001076  00000-0  85666-4 0  9996,2 52300  53.2170 287.4828 0001316  88.7931 271.3212 15.08842740 76220,6917.872,95.437,540.647,538.827,0.0
52300.0,STARLINK-3769,PAYLOAD,2023-08-29 09:41:04,15.08844175,0.0001407,53.2172,283.9142,92.7456,267.3697,4.9568e-05,5.01e-06,0.0,0 STARLINK-3769,1 52300U 22041AR  23241.40352382  .00000501  00000-0  49568-4 0  9990,2 52300  53.2172 283.9142 0001407  92.7456 267.3697 15.08844175 76349,6917.868,95.437,540.706,538.759,0.0
52300.0,STARLINK-3769,PAYLOAD,2023-08-29 12:51:50,15.08845582,0.0001408,53.2173,283.3197,92.055,268.0603,5.9638e-05,6.61e-06,0.0,0 STARLINK-3769,1 52300U 22041AR  23241.53600241  .00000661  00000-0  59638-4 0  9990,2 52300  53.2173 283.3197 0001408  92.0550 268.0603 15.08845582 76363,6917.863,95.437,540.702,538.754,0.0
52300.0,STARLINK-3769,PAYLOAD,2023-08-30 09:31:52,15.08834201,0.0001451,53.2177,279.4542,91.7059,268.4099,2.9974e-05,1.89e-06,0.0,0 STARLINK-3769,1 52300U 22041AR  23242.39713237  .00000189  00000-0  29974-4 0  9990,2 52300  53.2177 279.4542 0001451  91.7059 268.4099 15.08834201 76498,6917.898,95.438,540.767,538.759,0.0
52300.0,STARLINK-3769,PAYLOAD,2023-08-30 19:04:10,15.088377,0.000137,53.217,277.6694,84.8817,275.2332,2.4535e-05,1.03e-06,0.0,0 STARLINK-3769,1 52300U 22041AR  23242.79457111  .00000103  00000-0  24535-4 0  9994,2 52300  53.2170 277.6694 0001370  84.8817 275.2332 15.08837700 76554,6917.887,95.438,540.7,538.805,0.0
52300.0,STARLINK-3769,PAYLOAD,2023-08-31 10:58:01,15.08845322,0.0001344,53.2168,274.6959,86.015,274.0995,7.4127e-05,8.92e-06,0.0,0 STARLINK-3769,1 52300U 22041AR  23243.45696592  .00000892  00000-0  74127-4 0  9993,2 52300  53.2168 274.6959 0001344  86.0150 274.0995 15.08845322 76659,6917.864,95.437,540.659,538.799,0.0
52300.0,STARLINK-3769,PAYLOAD,2023-09-01 10:48:49,15.08837531,0.0001764,53.2172,270.2388,82.1698,277.9494,8.9414e-05,1.135e-05,0.0,0 STARLINK-3769,1 52300U 22041AR  23244.45057404  .00001135  00000-0  89414-4 0  9993,2 52300  53.2172 270.2388 0001764  82.1698 277.9494 15.08837531 76808,6917.888,95.438,540.973,538.533,0.0
52300.0,STARLINK-3769,PAYLOAD,2023-09-01 13:59:35,15.08841219,0.0002304,53.2162,269.6414,74.9395,285.1852,0.0001219,1.652e-05,0.0,0 STARLINK-3769,1 52300U 22041AR  23244.58305359  .00001652  00000-0  12190-3 0  9992,2 52300  53.2162 269.6414 0002304  74.9395 285.1852 15.08841219 76822,6917.877,95.437,541.336,538.148,0.0
52300.0,STARLINK-3769,PAYLOAD,2023-09-02 10:39:36,15.08841889,0.0001719,53.2162,265.7759,78.9172,281.2014,5.5085e-05,5.89e-06,0.0,0 STARLINK-3769,1 52300U 22041AR  23245.44417161  .00000589  00000-0  55085-4 0  9992,2 52300  53.2162 265.7759 0001719  78.9172 281.2014 15.08841889 76951,6917.875,95.437,540.929,538.55,0.0
52300.0,STARLINK-3769,PAYLOAD,2023-09-02 13:50:22,15.08843333,0.0001662,53.2161,265.1808,80.2298,279.8881,5.6451e-05,6.11e-06,0.0,0 STARLINK-3769,1 52300U 22041AR  23245.57664989  .00000611  00000-0  56451-4 0  9992,2 52300  53.2161 265.1808 0001662  80.2298 279.8881 15.08843333 76974,6917.87,95.437,540.885,538.585,0.0
52300.0,STARLINK-3769,PAYLOAD,2023-09-02 18:36:31,15.08840264,0.0001426,53.2177,264.2857,92.5893,267.5263,7.2277e-05,8.63e-06,0.0,0 STARLINK-3769,1 52300U 22041AR  23245.77537021  .00000863  00000-0  72277-4 0  9993,2 52300  53.2177 264.2857 0001426  92.5893 267.5263 15.08840264 77003,6917.88,95.438,540.731,538.758,0.0
52300.0,STARLINK-3769,PAYLOAD,2023-09-03 08:54:59,15.08845991,0.000143,53.2167,261.6104,90.418,269.6976,7.7933e-05,9.53e-06,0.0,0 STARLINK-3769,1 52300U 22041AR  23246.37152630  .00000953  00000-0  77933-4 0  9993,2 52300  53.2167 261.6104 0001430  90.4180 269.6976 15.08845991 77094,6917.862,95.437,540.716,538.738,0.0
52300.0,STARLINK-3769,PAYLOAD,2023-09-03 18:27:19,15.08837335,0.0002002,53.2163,259.8248,83.0048,277.1172,8.0412e-06,-1.6e-06,0.0,0 STARLINK-3769,1 52300U 22041AR  23246.76897584 -.00000160  00000-0  80412-5 0  9998,2 52300  53.2163 259.8248 0002002  83.0048 277.1172 15.08837335 77157,6917.889,95.438,541.138,538.369,0.0
52300.0,STARLINK-3769,PAYLOAD,2023-09-04 00:48:52,15.08830775,0.0001406,53.2163,258.6374,85.7057,274.4096,-3.7747e-05,-8.88e-06,0.0,0 STARLINK-3769,1 52300U 22041AR  23247.03393962 -.00000888  00000-0 -37747-4 0  9990,2 52300  53.2163 258.6374 0001406  85.7057 274.4096 15.08830775 77190,6917.909,95.438,540.746,538.801,0.0
52300.0,STARLINK-3769,PAYLOAD,2023-09-04 10:21:11,15.08831944,0.0001494,53.2157,256.8519,90.4655,269.6508,-1.7068e-06,-3.15e-06,0.0,0 STARLINK-3769,1 52300U 22041AR  23247.43137959 -.00000315  00000-0 -17068-5 0  9996,2 52300  53.2157 256.8519 0001494  90.4655 269.6508 15.08831944 77258,6917.905,95.438,540.804,538.736,0.0
52300.0,STARLINK-3769,PAYLOAD,2023-09-04 18:18:06,15.08835366,0.000151,53.2168,255.3665,86.8987,273.2178,2.8824e-05,1.71e-06,0.0,0 STARLINK-3769,1 52300U 22041AR  23247.76257767  .00000171  00000-0  28824-4 0  9991,2 52300  53.2168 255.3665 0001510  86.8987 273.2178 15.08835366 77304,6917.895,95.438,540.804,538.715,0.0
52300.0,STARLINK-3769,PAYLOAD,2023-09-05 11:47:20,15.08838385,0.0001524,53.2165,252.0955,99.0236,261.0928,0.00015803,2.228e-05,0.0,0 STARLINK-3769,1 52300U 22041AR  23248.49121216  .00002228  00000-0  15803-3 0  9998,2 52300  53.2165 252.0955 0001524  99.0236 261.0928 15.08838385 77419,6917.885,95.438,540.805,538.696,0.0
52300.0,STARLINK-3769,PAYLOAD,2023-09-06 02:05:49,15.08834635,0.0001444,53.2163,249.419,84.0157,276.1,0.00014135,1.962e-05,0.0,0 STARLINK-3769,1 52300U 22041AR  23249.08737664  .00001962  00000-0  14135-3 0  9995,2 52300  53.2163 249.4190 0001444  84.0157 276.1000 15.08834635 77507,6917.897,95.438,540.761,538.763,0.0
52300.0,STARLINK-3769,PAYLOAD,2023-09-07 06:42:45,15.08840377,0.0001365,53.2164,244.067,85.4807,274.6341,5.3798e-05,5.68e-06,0.0,0 STARLINK-3769,1 52300U 22041AR  23250.27969653  .00000568  00000-0  53798-4 0  9993,2 52300  53.2164 244.0670 0001365  85.4807 274.6341 15.08840377 77681,6917.879,95.438,540.689,538.8,0.0
